[{"OBJECT_NAME":"GECAM-A","OBJECT_ID":"2020-094A","EPOCH":"2026-02-27T03:21:27.347040","MEAN_MOTION":15.0033434,"ECCENTRICITY":0.00107,"INCLINATION":28.9961,"RA_OF_ASC_NODE":20.3521,"ARG_OF_PERICENTER":243.6219,"MEAN_ANOMALY":116.328,"EPHEMERIS_TYPE":0,"CLASSIFICATION_TYPE":"U","NORAD_CAT_ID":47234,"ELEMENT_SET_NO":999,"REV_AT_EPOCH":28514,"BSTAR":0.00017329,"MEAN_MOTION_DOT":2.379e-5,"MEAN_MOTION_DDOT":0},{"OBJECT_NAME":"STARLINK-34958","OBJECT_ID":"2025-179C","EPOCH":"2026-03-09T16:22:17.904288","MEAN_MOTION":15.05622171,"ECCENTRICITY":0.00016486,"INCLINATION":97.6029,"RA_OF_ASC_NODE":112.9018,"ARG_OF_PERICENTER":109.5641,"MEAN_ANOMALY":250.5764,"EPHEMERIS_TYPE":0,"CLASSIFICATION_TYPE":"U","NORAD_CAT_ID":65237,"ELEMENT_SET_NO":999,"REV_AT_EPOCH":3196,"BSTAR":-0.0002252672,"MEAN_MOTION_DOT":-3.307e-5,"MEAN_MOTION_DDOT":0}]
