GECAM-A                 
1 47234U 20094A   26058.13989985  .00002379  00000+0  17329-3 0  9993
2 47234  28.9961  20.3521 0010700 243.6219 116.3280 15.00334340285149
STARLINK-34958          
1 65237U 25179C   26068.68215167 -.00003307  00000+0 -22527-3 0  9990
2 65237  97.6029 112.9018 0001649 109.5641 250.5764 15.05622171 31964
